start=new Date('2023-03-09T00:00:00.000Z').valueOf();
sats=[{"OBJECT_ID":"2022-111D","COUNTRY_CODE":"US","EPHEMERIS_TYPE":"0","REF_FRAME":"TEME","MEAN_MOTION":"15.08841493","MEAN_ANOMALY":"260.7977","MEAN_MOTION_DOT":"0.00000907","OBJECT_NAME":"STARLINK-4708","TIME_SYSTEM":"UTC","RCS_SIZE":"LARGE","ELEMENT_SET_NO":"999","ECCENTRICITY":"0.00012970","ARG_OF_PERICENTER":"99.3162","REV_AT_EPOCH":"2829","CLASSIFICATION_TYPE":"U","INCLINATION":"53.2166","TLE_LINE1":"1 53776U 22111D   23067.68343238  .00000907  00000-0  75080-4 0  9990","EPOCH":"2023-03-08T16:24:08.557632","NORAD_CAT_ID":"53776","MEAN_ELEMENT_THEORY":"SGP4","OBJECT_TYPE":"PAYLOAD","SITE":"AFETR","MEAN_MOTION_DDOT":"0.0000000000000","PERIOD":"95.437","LAUNCH_DATE":"2022-09-11","FILE":"3855077","DECAY_DATE":null,"SEMIMAJOR_AXIS":"6917.876","BSTAR":"0.00007508000000","PERIAPSIS":"538.844","RA_OF_ASC_NODE":"163.8909","GP_ID":"227724649","APOAPSIS":"540.638","TLE_LINE2":"2 53776  53.2166 163.8909 0001297  99.3162 260.7977 15.08841493 28290","CENTER_NAME":"EARTH"},{"SITE":"AFETR","MEAN_MOTION_DDOT":"0.0000000000000","PERIOD":"95.438","LAUNCH_DATE":"2022-09-11","FILE":"3855064","DECAY_DATE":null,"SEMIMAJOR_AXIS":"6917.885","BSTAR":"0.00334620000000","PERIAPSIS":"539.137","GP_ID":"227698951","RA_OF_ASC_NODE":"157.7314","APOAPSIS":"540.363","TLE_LINE2":"2 53777  53.2167 157.7314 0000886 103.6705 256.4386 15.08838357 27312","CENTER_NAME":"EARTH","OBJECT_ID":"2022-111E","COUNTRY_CODE":"US","EPHEMERIS_TYPE":"0","REF_FRAME":"TEME","MEAN_MOTION":"15.08838357","MEAN_ANOMALY":"256.4386","OBJECT_NAME":"STARLINK-4664","MEAN_MOTION_DOT":"0.00053368","TIME_SYSTEM":"UTC","RCS_SIZE":"LARGE","ELEMENT_SET_NO":"999","ECCENTRICITY":"0.00008860","ARG_OF_PERICENTER":"103.6705","REV_AT_EPOCH":"2731","CLASSIFICATION_TYPE":"U","INCLINATION":"53.2167","TLE_LINE1":"1 53777U 22111E   23067.95070063  .00053368  00000-0  33462-2 0  9999","EPOCH":"2023-03-08T22:49:00.534432","NORAD_CAT_ID":"53777","MEAN_ELEMENT_THEORY":"SGP4","OBJECT_TYPE":"PAYLOAD"},{"RCS_SIZE":"LARGE","TIME_SYSTEM":"UTC","ELEMENT_SET_NO":"999","MEAN_ANOMALY":"245.3464","MEAN_MOTION_DOT":"0.00001394","OBJECT_NAME":"STARLINK-4709","REF_FRAME":"TEME","EPHEMERIS_TYPE":"0","MEAN_MOTION":"15.08848740","OBJECT_ID":"2022-111F","COUNTRY_CODE":"US","MEAN_ELEMENT_THEORY":"SGP4","NORAD_CAT_ID":"53778","OBJECT_TYPE":"PAYLOAD","EPOCH":"2023-03-08T15:31:04.621728","REV_AT_EPOCH":"2801","CLASSIFICATION_TYPE":"U","TLE_LINE1":"1 53778U 22111F   23067.64658127  .00001394  00000-0  10564-3 0  9990","INCLINATION":"53.2175","ECCENTRICITY":"0.00013390","ARG_OF_PERICENTER":"114.7668","FILE":"3855077","LAUNCH_DATE":"2022-09-11","DECAY_DATE":null,"PERIOD":"95.437","MEAN_MOTION_DDOT":"0.0000000000000","SITE":"AFETR","CENTER_NAME":"EARTH","TLE_LINE2":"2 53778  53.2175 163.6647 0001339 114.7668 245.3464 15.08848740 28011","BSTAR":"0.00010564000000","PERIAPSIS":"538.792","SEMIMAJOR_AXIS":"6917.854","APOAPSIS":"540.645","RA_OF_ASC_NODE":"163.6647","GP_ID":"227725646"},{"MEAN_MOTION":"15.08853537","REF_FRAME":"TEME","EPHEMERIS_TYPE":"0","COUNTRY_CODE":"US","OBJECT_ID":"2022-111G","ELEMENT_SET_NO":"999","RCS_SIZE":"LARGE","TIME_SYSTEM":"UTC","MEAN_MOTION_DOT":"0.00020425","OBJECT_NAME":"STARLINK-4706","MEAN_ANOMALY":"252.9268","TLE_LINE1":"1 53779U 22111G   23067.94701537  .00020425  00000-0  12972-2 0  9998","INCLINATION":"53.2158","REV_AT_EPOCH":"2731","CLASSIFICATION_TYPE":"U","ARG_OF_PERICENTER":"107.1831","ECCENTRICITY":"0.00009710","OBJECT_TYPE":"PAYLOAD","MEAN_ELEMENT_THEORY":"SGP4","NORAD_CAT_ID":"53779","EPOCH":"2023-03-08T22:43:42.127968","SITE":"AFETR","DECAY_DATE":null,"FILE":"3855064","LAUNCH_DATE":"2022-09-11","PERIOD":"95.437","MEAN_MOTION_DDOT":"0.0000000000000","APOAPSIS":"540.376","RA_OF_ASC_NODE":"157.7081","GP_ID":"227699176","PERIAPSIS":"539.032","BSTAR":"0.00129720000000","SEMIMAJOR_AXIS":"6917.839","CENTER_NAME":"EARTH","TLE_LINE2":"2 53779  53.2158 157.7081 0000971 107.1831 252.9268 15.08853537 27316"},{"SITE":"AFETR","LAUNCH_DATE":"2022-09-11","FILE":"3855064","DECAY_DATE":null,"PERIOD":"95.438","MEAN_MOTION_DDOT":"0.0000000000000","SEMIMAJOR_AXIS":"6917.897","BSTAR":"0.00344340000000","PERIAPSIS":"538.716","RA_OF_ASC_NODE":"157.7476","GP_ID":"227699175","APOAPSIS":"540.808","CENTER_NAME":"EARTH","TLE_LINE2":"2 53780  53.2163 157.7476 0001512 103.8217 256.2943 15.08834667 27315","EPHEMERIS_TYPE":"0","REF_FRAME":"TEME","MEAN_MOTION":"15.08834667","OBJECT_ID":"2022-111H","COUNTRY_CODE":"US","TIME_SYSTEM":"UTC","RCS_SIZE":"LARGE","ELEMENT_SET_NO":"999","MEAN_ANOMALY":"256.2943","OBJECT_NAME":"STARLINK-4678","MEAN_MOTION_DOT":"0.00054933","CLASSIFICATION_TYPE":"U","REV_AT_EPOCH":"2731","INCLINATION":"53.2163","TLE_LINE1":"1 53780U 22111H   23067.95438873  .00054933  00000-0  34434-2 0  9999","ECCENTRICITY":"0.00015120","ARG_OF_PERICENTER":"103.8217","NORAD_CAT_ID":"53780","MEAN_ELEMENT_THEORY":"SGP4","OBJECT_TYPE":"PAYLOAD","EPOCH":"2023-03-08T22:54:19.186272"},{"SITE":"AFETR","DECAY_DATE":null,"LAUNCH_DATE":"2022-09-11","FILE":"3855064","PERIOD":"95.436","MEAN_MOTION_DDOT":"0.0000000000000","GP_ID":"227699168","RA_OF_ASC_NODE":"157.6305","APOAPSIS":"540.333","SEMIMAJOR_AXIS":"6917.823","BSTAR":"-0.00006709900000","PERIAPSIS":"539.043","CENTER_NAME":"EARTH","TLE_LINE2":"2 53781  53.2179 157.6305 0000932  80.9477 279.1620 15.08858806 27318","MEAN_MOTION":"15.08858806","EPHEMERIS_TYPE":"0","REF_FRAME":"TEME","COUNTRY_CODE":"US","OBJECT_ID":"2022-111J","ELEMENT_SET_NO":"999","TIME_SYSTEM":"UTC","RCS_SIZE":"LARGE","MEAN_MOTION_DOT":"-0.00001356","OBJECT_NAME":"STARLINK-4462","MEAN_ANOMALY":"279.1620","INCLINATION":"53.2179","TLE_LINE1":"1 53781U 22111J   23067.93594441 -.00001356  00000-0 -67099-4 0  9990","CLASSIFICATION_TYPE":"U","REV_AT_EPOCH":"2731","ECCENTRICITY":"0.00009320","ARG_OF_PERICENTER":"80.9477","OBJECT_TYPE":"PAYLOAD","NORAD_CAT_ID":"53781","MEAN_ELEMENT_THEORY":"SGP4","EPOCH":"2023-03-08T22:27:45.597024"},{"MEAN_MOTION":"15.08841735","REF_FRAME":"TEME","EPHEMERIS_TYPE":"0","COUNTRY_CODE":"US","OBJECT_ID":"2022-111K","ELEMENT_SET_NO":"999","RCS_SIZE":"LARGE","TIME_SYSTEM":"UTC","OBJECT_NAME":"STARLINK-4679","MEAN_MOTION_DOT":"-0.00003113","MEAN_ANOMALY":"253.6447","TLE_LINE1":"1 53782U 22111K   23067.94333368 -.00003113  00000-0 -17759-3 0  9991","INCLINATION":"53.2180","CLASSIFICATION_TYPE":"U","REV_AT_EPOCH":"2731","ECCENTRICITY":"0.00014650","ARG_OF_PERICENTER":"106.4706","OBJECT_TYPE":"PAYLOAD","MEAN_ELEMENT_THEORY":"SGP4","NORAD_CAT_ID":"53782","EPOCH":"2023-03-08T22:38:24.029952","SITE":"AFETR","DECAY_DATE":null,"FILE":"3855065","LAUNCH_DATE":"2022-09-11","MEAN_MOTION_DDOT":"0.0000000000000","PERIOD":"95.437","APOAPSIS":"540.754","RA_OF_ASC_NODE":"157.6865","GP_ID":"227699188","PERIAPSIS":"538.727","BSTAR":"-0.00017759000000","SEMIMAJOR_AXIS":"6917.875","CENTER_NAME":"EARTH","TLE_LINE2":"2 53782  53.2180 157.6865 0001465 106.4706 253.6447 15.08841735 27310"},{"TIME_SYSTEM":"UTC","RCS_SIZE":"LARGE","ELEMENT_SET_NO":"999","MEAN_ANOMALY":"228.2709","MEAN_MOTION_DOT":"0.00029568","OBJECT_NAME":"STARLINK-4536","EPHEMERIS_TYPE":"0","REF_FRAME":"TEME","MEAN_MOTION":"15.08869286","OBJECT_ID":"2022-111L","COUNTRY_CODE":"US","NORAD_CAT_ID":"53783","MEAN_ELEMENT_THEORY":"SGP4","OBJECT_TYPE":"PAYLOAD","EPOCH":"2023-03-08T15:55:37.206048","REV_AT_EPOCH":"2808","CLASSIFICATION_TYPE":"U","INCLINATION":"53.2176","TLE_LINE1":"1 53783U 22111L   23067.66362507  .00029568  00000-0  18666-2 0  9995","ARG_OF_PERICENTER":"131.8447","ECCENTRICITY":"0.00019180","LAUNCH_DATE":"2022-09-11","FILE":"3855077","DECAY_DATE":null,"MEAN_MOTION_DDOT":"0.0000000000000","PERIOD":"95.436","SITE":"AFETR","CENTER_NAME":"EARTH","TLE_LINE2":"2 53783  53.2176 158.7758 0001918 131.8447 228.2709 15.08869286 28081","SEMIMAJOR_AXIS":"6917.791","PERIAPSIS":"538.329","BSTAR":"0.00186660000000","GP_ID":"227723899","RA_OF_ASC_NODE":"158.7758","APOAPSIS":"540.983"},{"SEMIMAJOR_AXIS":"6917.843","PERIAPSIS":"538.709","BSTAR":"0.00015892000000","RA_OF_ASC_NODE":"158.8501","GP_ID":"227724650","APOAPSIS":"540.708","TLE_LINE2":"2 53784  53.2171 158.8501 0001445 130.1558 229.9561 15.08852100 28085","CENTER_NAME":"EARTH","SITE":"AFETR","MEAN_MOTION_DDOT":"0.0000000000000","PERIOD":"95.437","LAUNCH_DATE":"2022-09-11","FILE":"3855077","DECAY_DATE":null,"ARG_OF_PERICENTER":"130.1558","ECCENTRICITY":"0.00014450","CLASSIFICATION_TYPE":"U","REV_AT_EPOCH":"2808","INCLINATION":"53.2171","TLE_LINE1":"1 53784U 22111M   23067.67467705  .00002243  00000-0  15892-3 0  9993","EPOCH":"2023-03-08T16:11:32.097120","NORAD_CAT_ID":"53784","MEAN_ELEMENT_THEORY":"SGP4","OBJECT_TYPE":"PAYLOAD","OBJECT_ID":"2022-111M","COUNTRY_CODE":"US","EPHEMERIS_TYPE":"0","REF_FRAME":"TEME","MEAN_MOTION":"15.08852100","MEAN_ANOMALY":"229.9561","OBJECT_NAME":"STARLINK-4687","MEAN_MOTION_DOT":"0.00002243","TIME_SYSTEM":"UTC","RCS_SIZE":"LARGE","ELEMENT_SET_NO":"999"},{"SITE":"AFETR","DECAY_DATE":null,"FILE":"3855077","LAUNCH_DATE":"2022-09-11","MEAN_MOTION_DDOT":"0.0000000000000","PERIOD":"95.437","APOAPSIS":"540.463","RA_OF_ASC_NODE":"147.8531","GP_ID":"227725400","PERIAPSIS":"538.996","BSTAR":"0.00007191000000","SEMIMAJOR_AXIS":"6917.864","CENTER_NAME":"EARTH","TLE_LINE2":"2 53786  53.2186 147.8531 0001060  79.3327 280.7785 15.08845260 28256","MEAN_MOTION":"15.08845260","REF_FRAME":"TEME","EPHEMERIS_TYPE":"0","COUNTRY_CODE":"US","OBJECT_ID":"2022-111P","ELEMENT_SET_NO":"999","RCS_SIZE":"LARGE","TIME_SYSTEM":"UTC","OBJECT_NAME":"STARLINK-4631","MEAN_MOTION_DOT":"0.00000857","MEAN_ANOMALY":"280.7785","TLE_LINE1":"1 53786U 22111P   23067.83476264  .00000857  00000-0  71910-4 0  9996","INCLINATION":"53.2186","REV_AT_EPOCH":"2825","CLASSIFICATION_TYPE":"U","ECCENTRICITY":"0.00010600","ARG_OF_PERICENTER":"79.3327","OBJECT_TYPE":"PAYLOAD","MEAN_ELEMENT_THEORY":"SGP4","NORAD_CAT_ID":"53786","EPOCH":"2023-03-08T20:02:03.492096"}];
